#aV2023  4 18  0  0  0.00000000     288 DD+AD WGS84 FIT  NGA
## 2258 172800.00000000   300.00000000 60052 0.0000000000000
+   32     1  2  3  4  5  6  7  8  9 10 11 12 13 14 15 16 17
+         18 19 20 21 22 23 24 25 26 27 28 29 30 31 32  0  0
+          0  0  0  0  0  0  0  0  0  0  0  0  0  0  0  0  0
+          0  0  0  0  0  0  0  0  0  0  0  0  0  0  0  0  0
+          0  0  0  0  0  0  0  0  0  0  0  0  0  0  0  0  0
++         2  2  2  2  2  2  2  2  2  2  2  2  2  2  2  2  2
++         2  2  2  2  2  2  2  2  2  2  2  2  2  2  2  0  0
++         0  0  0  0  0  0  0  0  0  0  0  0  0  0  0  0  0
++         0  0  0  0  0  0  0  0  0  0  0  0  0  0  0  0  0
++         0  0  0  0  0  0  0  0  0  0  0  0  0  0  0  0  0
%c cc cc ccc ccc cccc cccc cccc cccc ccccc ccccc ccccc ccccc
%c cc cc ccc ccc cccc cccc cccc cccc ccccc ccccc ccccc ccccc
%f  0.0000000  0.000000000  0.00000000000  0.000000000000000
%f  0.0000000  0.000000000  0.00000000000  0.000000000000000
%i    0    0    0    0      0      0      0      0         0
%i    0    0    0    0      0      0      0      0         0
/*      NGA, ST. LOUIS,MO.                                  
/*   EPHEMERIS COMPUTED FROM 2 DAYS OF DATA                 
/*   EPOCHA v8 SMOOTHER                                     
/*   G2139 IERS2010 SATIGS SATAPC                           
*  2023  4 18  2 45  0.00000000
P  1 -13488.248483  22025.549658  -5642.144541    192.377042                    
V  1  -5928.880576   3901.522311  31560.796568     -0.032634                    
P  2     -8.134790 -20966.331692  17080.095088   -604.966235                    
V  2  12569.050686 -16189.876743 -20302.653706      0.036995                    
P  3  -8443.237682  13327.199293 -21473.461685   -326.542480                    
V  3 -26537.794087  -4672.299223   7695.723614      0.091591                    
P  4  -2418.802737  22434.069050 -13908.457519     19.506430                    
V  4  -7940.363712 -15999.261034 -24513.142626      0.092707                    
P  5  22997.490517  -5816.368357  11896.701224   -123.819190                    
V  5  15000.496800   3827.662613 -26623.696507     -0.014600                    
P  6  14290.426912   5101.484636 -21749.211623    587.150214                    
V  6 -17252.398431  21635.942422  -6147.279464      0.010883                    
P  7  -1020.141224  20552.662877  16968.612906    198.902741                    
V  7 -14796.444814  14939.546902 -19990.770818     -0.086091                    
P  8 -10521.479805  12563.168132  20752.787950   -118.264569                    
V  8 -11238.276476 -24138.220222   9271.975982     -0.018030                    
P  9   6775.733682  25217.081973  -4800.815048   -177.741773                    
V  9  -5023.104701  -4435.539546 -30882.044491      0.079720                    
P 10 -21115.593072 -11340.158383  11952.736931    -33.284327                    
V 10  14840.042002    585.885888  26877.021568     -0.016017                    
P 11  20688.837508  -8187.033645 -14471.824107   -166.166285                    
V 11 -10713.336027  15088.086729 -23870.993240     -0.127829                    
P 12  11823.944981 -12049.406942 -20764.505526   -365.256574                    
V 12  24911.685931   6531.419652  10625.983842     -0.046548                    
P 13  14273.014545  -4508.884757  21759.637220    507.341022                    
V 13   6671.037011  27226.203962   1451.986261      0.055696                    
P 14  18497.638234  13411.486802  13670.760487     28.473930                    
V 14 -17458.758236   -843.423590  24321.865569      0.116980                    
P 15   8916.627300 -14406.558386  19942.278662     31.604347                    
V 15  14159.598451  22456.635817   9937.440662      0.034195                    
P 16 -24928.353155    628.124347   9467.693687   -508.028962                    
V 16 -11450.427324  -5006.742974 -28437.754595      0.027968                    
P 17  13048.748402  21122.927439  -8860.279497    711.077430                    
V 17   1358.212609  12025.406933  29362.618837      0.018031                    
P 18  -1301.944044 -18525.701337  18929.833435   -228.901538                    
V 18  16396.422646 -17646.827955 -16286.388602     -0.165421                    
P 19  15626.072516  13728.826796 -16909.655610    305.112142                    
V 19   4185.852122  20512.325125  20521.025393      0.050971                    
P 20  26266.117662  -2098.328915   2376.395212    438.435336                    
V 20   3048.251023   3334.333198 -31400.532824     -0.021428                    
P 21 -17038.473296  19289.113489   4884.373540    154.184896                    
V 21    350.399528  -6573.395489  31519.898226     -0.014987                    
P 22 -16140.687583 -10383.541711 -17982.396026    466.068844                    
V 22  -5225.110877 -23155.761815  17464.814140      0.067922                    
P 23 -10251.564024 -14735.136215  19630.761620     17.606095                    
V 23  24769.865452   2046.163579  14329.927109      0.026272                    
P 24  14275.258689 -22122.239071   -564.749494   -155.898220                    
V 24   3515.230883   1971.305693  31421.406916     -0.145384                    
P 25   -791.310626 -15700.858389 -21744.106064    436.413017                    
V 25  26632.533878   3572.218394  -3335.020197      0.028402                    
P 26 -26123.328122  -4731.232877  -3358.663884    241.664893                    
V 26   4366.809663  -2943.953441 -30555.211956     -0.002778                    
P 27 -15636.339485    259.873199  21276.566330     56.527318                    
V 27  -9710.741658 -25746.722357  -6337.788806     -0.084249                    
P 28 -13640.525336  -7020.595296 -21707.282997     66.659777                    
V 28  16231.601520 -22196.881844  -3029.959021      0.060241                    
P 29  -1864.491977 -25173.219495  -8185.549205   -595.952653                    
V 29   5104.248042   9238.746539 -29851.436730     -0.015462                    
P 30   9515.842245  13010.233671  21187.021125   -521.833528                    
V 30 -17474.874803  20311.779502  -4913.068111      0.018699                    
P 31 -18554.747919    829.395346 -19325.403825   -214.208354                    
V 31  14602.356927 -19125.809243 -14538.709494     -0.008587                    
P 32 -15673.194976 -18426.279782 -11016.409767   -454.328502                    
V 32  -3056.925354 -14058.031732  27224.484527     -0.099554                    
EOF
